NORAD_CAT_ID,OBJECT_NAME,OBJECT_TYPE,EPOCH,MEAN_MOTION,ECCENTRICITY,INCLINATION,RA_OF_ASC_NODE,ARG_OF_PERICENTER,MEAN_ANOMALY,BSTAR,MEAN_MOTION_DOT,MEAN_MOTION_DDOT,TLE_LINE0,TLE_LINE1,TLE_LINE2,SEMIMAJOR_AXIS,PERIOD,APOGEE,PERIGEE,DECAYED
53174.0,STARLINK-4205,PAYLOAD,2023-03-09 16:26:10,15.08852837,0.0001341,53.2149,54.2747,102.3666,257.7476,0.0009958,0.00015601,0.0,0 STARLINK-4205,1 53174U 22083AU  23068.68484496  .00015601  00000-0  99580-3 0  9990,2 53174  53.2149  54.2747 0001341 102.3666 257.7476 15.08852837 36394,6917.841,95.437,540.634,538.778,0.0
53174.0,STARLINK-4205,PAYLOAD,2023-03-10 08:20:00,15.08896814,0.0001375,53.2149,51.3009,98.4416,261.6732,0.0017884,0.00028334,0.0,0 STARLINK-4205,1 53174U 22083AU  23069.34722782  .00028334  00000-0  17884-2 0  9990,2 53174  53.2149  51.3009 0001375  98.4416 261.6732 15.08896814 36491,6917.707,95.434,540.523,538.621,0.0
53174.0,STARLINK-4205,PAYLOAD,2023-03-10 16:16:57,15.08845191,0.0002547,53.2161,49.8151,71.6047,288.5222,0.00020789,3.022e-05,0.0,0 STARLINK-4205,1 53174U 22083AU  23069.67843905  .00003022  00000-0  20789-3 0  9993,2 53174  53.2161  49.8151 0002547  71.6047 288.5222 15.08845191 36540,6917.865,95.437,541.492,537.968,0.0
53174.0,STARLINK-4205,PAYLOAD,2023-03-11 01:49:16,15.08813541,0.0001183,53.215,48.0295,74.3637,285.7486,0.00042613,6.496e-05,0.0,0 STARLINK-4205,1 53174U 22083AU  23070.07588272  .00006496  00000-0  42613-3 0  9990,2 53174  53.2150  48.0295 0001183  74.3637 285.7486 15.08813541 36600,6917.961,95.439,540.645,539.008,0.0
53174.0,STARLINK-4205,PAYLOAD,2023-03-11 09:46:11,15.08842354,0.0001476,53.2166,46.5432,76.067,284.0486,0.00092877,0.00014525,0.0,0 STARLINK-4205,1 53174U 22083AU  23070.40708307  .00014525  00000-0  92877-3 0  9999,2 53174  53.2166  46.5432 0001476  76.0670 284.0486 15.08842354 36655,6917.873,95.437,540.759,538.717,0.0
53174.0,STARLINK-4205,PAYLOAD,2023-03-12 09:36:59,15.08874329,0.0001357,53.2167,42.0828,81.8815,278.2331,0.0023356,0.00037114,0.0,0 STARLINK-4205,1 53174U 22083AU  23071.40068561  .00037114  00000-0  23356-2 0  9995,2 53174  53.2167  42.0828 0001357  81.8815 278.2331 15.08874329 36807,6917.775,95.435,540.579,538.702,0.0
53174.0,STARLINK-4205,PAYLOAD,2023-03-12 22:20:04,15.08851913,0.0001301,53.2171,39.704,107.3239,252.7896,0.001703,0.00026928,0.0,0 STARLINK-4205,1 53174U 22083AU  23071.93060633  .00026928  00000-0  17030-2 0  9998,2 53174  53.2171  39.7040 0001301 107.3239 252.7896 15.08851913 36249,6917.844,95.437,540.609,538.809,0.0
53174.0,STARLINK-4205,PAYLOAD,2023-03-12 23:55:27,15.08854505,0.0001343,53.2169,39.4069,114.8753,245.2379,0.0018197,0.00028803,0.0,0 STARLINK-4205,1 53174U 22083AU  23071.99684573  .00028803  00000-0  18197-2 0  9998,2 53174  53.2169  39.4069 0001343 114.8753 245.2379 15.08854505 36898,6917.836,95.437,540.63,538.772,0.0
53174.0,STARLINK-4205,PAYLOAD,2023-03-13 01:30:50,15.08862032,0.0001164,53.2169,39.1097,105.8643,254.2477,0.0016623,0.00026282,0.0,0 STARLINK-4205,1 53174U 22083AU  23072.06308424  .00026282  00000-0  16623-2 0  9996,2 53174  53.2169  39.1097 0001164 105.8643 254.2477 15.08862032 36269,6917.813,95.436,540.483,538.873,0.0
53174.0,STARLINK-4205,PAYLOAD,2023-03-13 22:10:51,15.08861223,0.0001198,53.2168,35.2431,97.7122,262.4006,0.0017572,0.00027805,0.0,0 STARLINK-4205,1 53174U 22083AU  23072.92420727  .00027805  00000-0  17572-2 0  9998,2 53174  53.2168  35.2431 0001198  97.7122 262.4006 15.08861223 36399,6917.816,95.436,540.509,538.852,0.0
53174.0,STARLINK-4205,PAYLOAD,2023-03-14 04:32:24,15.08831733,0.0001121,53.2169,34.0538,82.4112,277.7008,0.0017537,0.00027726,0.0,0 STARLINK-4205,1 53174U 22083AU  23073.18917017  .00027726  00000-0  17537-2 0  9993,2 53174  53.2169  34.0538 0001121  82.4112 277.7008 15.08831733 37071,6917.906,95.438,540.546,538.995,0.0
53174.0,STARLINK-4205,PAYLOAD,2023-03-14 06:07:47,15.08835983,0.0001019,53.2166,33.7569,76.9682,283.1423,0.0012126,0.00019061,0.0,0 STARLINK-4205,1 53174U 22083AU  23073.25541001  .00019061  00000-0  12126-2 0  9999,2 53174  53.2166  33.7569 0001019  76.9682 283.1423 15.08835983 36447,6917.893,95.438,540.463,539.053,0.0
53174.0,STARLINK-4205,PAYLOAD,2023-03-14 22:01:38,15.08861208,0.0001118,53.2165,30.7855,83.0831,277.0288,0.0013875,0.00021876,0.0,0 STARLINK-4205,1 53174U 22083AU  23073.91780749  .00021876  00000-0  13875-2 0  9995,2 53174  53.2165  30.7855 0001118  83.0831 277.0288 15.08861208 36547,6917.816,95.436,540.454,538.907,0.0
53174.0,STARLINK-4205,PAYLOAD,2023-03-15 05:58:33,15.08896324,0.0001212,53.2171,29.3008,99.4068,260.7061,0.0023157,0.00036816,0.0,0 STARLINK-4205,1 53174U 22083AU  23074.24899680  .00036816  00000-0  23157-2 0  9991,2 53174  53.2171  29.3008 0001212  99.4068 260.7061 15.08896324 37238,6917.708,95.434,540.412,538.735,0.0
53174.0,STARLINK-4205,PAYLOAD,2023-03-16 04:13:57,15.08855386,0.0001365,53.2164,25.1369,92.6185,267.4963,0.0018539,0.00029353,0.0,0 STARLINK-4205,1 53174U 22083AU  23075.17636258  .00029353  00000-0  18539-2 0  9990,2 53174  53.2164  25.1369 0001365  92.6185 267.4963 15.08855386 37371,6917.833,95.437,540.643,538.754,0.0
53174.0,STARLINK-4205,PAYLOAD,2023-03-16 05:49:20,15.08858685,0.0001379,53.2163,24.8394,91.4487,268.6663,0.0018996,0.00030089,0.0,0 STARLINK-4205,1 53174U 22083AU  23075.24260190  .00030089  00000-0  18996-2 0  9991,2 53174  53.2163  24.8394 0001379  91.4487 268.6663 15.08858685 36746,6917.823,95.436,540.642,538.734,0.0
53174.0,STARLINK-4205,PAYLOAD,2023-03-16 20:07:49,15.08819191,0.0001624,53.2164,22.1627,83.9258,276.192,0.0016718,0.00026404,0.0,0 STARLINK-4205,1 53174U 22083AU  23075.83877146  .00026404  00000-0  16718-2 0  9997,2 53174  53.2164  22.1627 0001624  83.9258 276.1920 15.08819191 37472,6917.944,95.439,540.932,538.686,0.0
53174.0,STARLINK-4205,PAYLOAD,2023-03-17 13:37:04,15.0883536,0.00014,53.2156,18.8894,80.5005,279.6145,0.00083204,0.00012977,0.0,0 STARLINK-4205,1 53174U 22083AU  23076.56741511  .00012977  00000-0  83204-3 0  9999,2 53174  53.2156  18.8894 0001400  80.5005 279.6145 15.08835360 36940,6917.895,95.438,540.728,538.791,0.0
53174.0,STARLINK-4205,PAYLOAD,2023-03-18 19:49:24,15.08850668,0.0001693,53.2159,13.2383,84.6138,275.5048,0.00065121,0.00010094,0.0,0 STARLINK-4205,1 53174U 22083AU  23077.82597610  .00010094  00000-0  65121-3 0  9994,2 53174  53.2159  13.2383 0001693  84.6138 275.5048 15.08850668 37778,6917.848,95.437,540.884,538.542,0.0
53174.0,STARLINK-4205,PAYLOAD,2023-03-19 02:10:56,15.08860958,0.0001488,53.2165,12.0496,89.0066,271.1097,0.00080658,0.00012579,0.0,0 STARLINK-4205,1 53174U 22083AU  23078.09093168  .00012579  00000-0  80658-3 0  9995,2 53174  53.2165  12.0496 0001488  89.0066 271.1097 15.08860958 37171,6917.816,95.436,540.711,538.652,0.0
53174.0,STARLINK-4205,PAYLOAD,2023-03-19 19:40:11,15.08847396,0.0001497,53.217,8.7769,81.7839,278.3323,0.00030336,4.544e-05,0.0,0 STARLINK-4205,1 53174U 22083AU  23078.81957312  .00004544  00000-0  30336-3 0  9996,2 53174  53.2170   8.7769 0001497  81.7839 278.3323 15.08847396 37924,6917.858,95.437,540.758,538.687,0.0
53174.0,STARLINK-4205,PAYLOAD,2023-03-20 02:01:43,15.08840055,0.0001374,53.2171,7.5914,66.4218,293.6918,2.1521e-05,5.5e-07,0.0,0 STARLINK-4205,1 53174U 22083AU  23079.08453626  .00000055  00000-0  21521-4 0  9995,2 53174  53.2171   7.5914 0001374  66.4218 293.6918 15.08840055 37968,6917.88,95.438,540.696,538.795,0.0
53174.0,STARLINK-4205,PAYLOAD,2023-03-20 11:34:02,15.08840504,0.0001357,53.2162,5.8055,64.7887,295.3246,4.9867e-05,5.06e-06,0.0,0 STARLINK-4205,1 53174U 22083AU  23079.48197660  .00000506  00000-0  49867-4 0  9996,2 53174  53.2162   5.8055 0001357  64.7887 295.3246 15.08840504 37387,6917.879,95.438,540.683,538.805,0.0
53174.0,STARLINK-4205,PAYLOAD,2023-03-21 01:52:30,15.08862594,0.0001332,53.2163,3.1302,68.0357,292.0776,0.00050111,7.701e-05,0.0,0 STARLINK-4205,1 53174U 22083AU  23080.07812715  .00007701  00000-0  50111-3 0  9995,2 53174  53.2163   3.1302 0001332  68.0357 292.0776 15.08862594 38113,6917.811,95.436,540.598,538.755,0.0
53174.0,STARLINK-4205,PAYLOAD,2023-03-21 22:32:31,15.08840479,0.0001173,53.2161,359.2621,58.5114,301.5992,0.00015413,2.166e-05,0.0,0 STARLINK-4205,1 53174U 22083AU  23080.93925727  .00002166  00000-0  15413-3 0  9994,2 53174  53.2161 359.2621 0001173  58.5114 301.5992 15.08840479 37605,6917.879,95.438,540.555,538.932,0.0
53174.0,STARLINK-4205,PAYLOAD,2023-03-22 03:18:41,15.08844013,9.81e-05,53.2164,358.3704,78.3636,281.7466,0.00043284,6.608e-05,0.0,0 STARLINK-4205,1 53174U 22083AU  23081.13797548  .00006608  00000-0  43284-3 0  9997,2 53174  53.2164 358.3704 0000981  78.3636 281.7466 15.08844013 38272,6917.868,95.437,540.412,539.054,0.0
53174.0,STARLINK-4205,PAYLOAD,2023-03-23 03:09:27,15.08858049,0.0001246,53.2161,353.9114,71.1962,288.9166,0.0015186,0.00023975,0.0,0 STARLINK-4205,1 53174U 22083AU  23082.13157367  .00023975  00000-0  15186-2 0  9992,2 53174  53.2161 353.9114 0001246  71.1962 288.9166 15.08858049 37788,6917.825,95.436,540.552,538.828,0.0
53174.0,STARLINK-4205,PAYLOAD,2023-03-23 22:14:05,15.08846806,0.0001076,53.2158,350.343,126.4813,233.6279,0.0004232,6.455e-05,0.0,0 STARLINK-4205,1 53174U 22083AU  23082.92645327  .00006455  00000-0  42320-3 0  9992,2 53174  53.2158 350.3430 0001076 126.4813 233.6279 15.08846806 37900,6917.86,95.437,540.469,538.98,0.0
53174.0,STARLINK-4205,PAYLOAD,2023-03-24 03:00:15,15.089254,0.0001018,53.2159,349.452,94.8123,265.2985,0.0073799,0.00119439,0.0,0 STARLINK-4205,1 53174U 22083AU  23083.12517382  .00119439  00000-0  73799-2 0  9994,2 53174  53.2159 349.4520 0001018  94.8123 265.2985 15.08925400 38575,6917.619,95.432,540.189,538.78,0.0
53174.0,STARLINK-4205,PAYLOAD,2023-03-24 22:04:51,15.08884789,0.0001213,53.2155,345.8829,60.7886,299.3227,0.001967,0.00031194,0.0,0 STARLINK-4205,1 53174U 22083AU  23083.92004161  .00031194  00000-0  19670-2 0  9997,2 53174  53.2155 345.8829 0001213  60.7886 299.3227 15.08884789 38052,6917.743,95.435,540.448,538.769,0.0
